CCSDS_OMM_VERS = 2.0
CREATION_DATE  = 
ORIGINATOR     = 

OBJECT_NAME    = RASSVET-3 7
OBJECT_ID      = 2026-061G
CENTER_NAME    = EARTH
REF_FRAME      = TEME
TIME_SYSTEM    = UTC
MEAN_ELEMENT_THEORY = SGP/SGP4

EPOCH          = 2026-04-03T11:47:35.238912
MEAN_MOTION    = 15.89027704
ECCENTRICITY   = .00261792
INCLINATION    = 82.2965
RA_OF_ASC_NODE = 96.5042
ARG_OF_PERICENTER = 34.3438
MEAN_ANOMALY   = 325.9519

EPHEMERIS_TYPE = 0
CLASSIFICATION_TYPE = U
NORAD_CAT_ID   = 68366
ELEMENT_SET_NO = 999
REV_AT_EPOCH   = 171
BSTAR          = .25394053E-3
MEAN_MOTION_DOT = .7443E-3
MEAN_MOTION_DDOT = .779433E-6

CCSDS_OMM_VERS = 2.0
CREATION_DATE  = 
ORIGINATOR     = 

OBJECT_NAME    = RASSVET-3 8
OBJECT_ID      = 2026-061H
CENTER_NAME    = EARTH
REF_FRAME      = TEME
TIME_SYSTEM    = UTC
MEAN_ELEMENT_THEORY = SGP/SGP4

EPOCH          = 2026-04-03T11:47:42.277056
MEAN_MOTION    = 15.89007514
ECCENTRICITY   = .00261681
INCLINATION    = 82.2965
RA_OF_ASC_NODE = 96.5040
ARG_OF_PERICENTER = 34.3053
MEAN_ANOMALY   = 325.9902

EPHEMERIS_TYPE = 0
CLASSIFICATION_TYPE = U
NORAD_CAT_ID   = 68367
ELEMENT_SET_NO = 999
REV_AT_EPOCH   = 171
BSTAR          = .24612448E-3
MEAN_MOTION_DOT = .72075E-3
MEAN_MOTION_DDOT = .660185E-6

CCSDS_OMM_VERS = 2.0
CREATION_DATE  = 
ORIGINATOR     = 

OBJECT_NAME    = RASSVET-3 9
OBJECT_ID      = 2026-061J
CENTER_NAME    = EARTH
REF_FRAME      = TEME
TIME_SYSTEM    = UTC
MEAN_ELEMENT_THEORY = SGP/SGP4

EPOCH          = 2026-04-03T10:15:39.836160
MEAN_MOTION    = 15.89583750
ECCENTRICITY   = .00255166
INCLINATION    = 82.2958
RA_OF_ASC_NODE = 96.5736
ARG_OF_PERICENTER = 34.8114
MEAN_ANOMALY   = 325.4820

EPHEMERIS_TYPE = 0
CLASSIFICATION_TYPE = U
NORAD_CAT_ID   = 68368
ELEMENT_SET_NO = 999
REV_AT_EPOCH   = 170
BSTAR          = .46816993E-3
MEAN_MOTION_DOT = .140601E-2
MEAN_MOTION_DDOT = .5786097E-5

CCSDS_OMM_VERS = 2.0
CREATION_DATE  = 
ORIGINATOR     = 

OBJECT_NAME    = RASSVET-3 10
OBJECT_ID      = 2026-061K
CENTER_NAME    = EARTH
REF_FRAME      = TEME
TIME_SYSTEM    = UTC
MEAN_ELEMENT_THEORY = SGP/SGP4

EPOCH          = 2026-04-03T11:47:15.841248
MEAN_MOTION    = 15.89058116
ECCENTRICITY   = .00260349
INCLINATION    = 82.2965
RA_OF_ASC_NODE = 96.5037
ARG_OF_PERICENTER = 34.2644
MEAN_ANOMALY   = 326.0300

EPHEMERIS_TYPE = 0
CLASSIFICATION_TYPE = U
NORAD_CAT_ID   = 68369
ELEMENT_SET_NO = 999
REV_AT_EPOCH   = 171
BSTAR          = .24820189E-3
MEAN_MOTION_DOT = .72843E-3
MEAN_MOTION_DDOT = .699519E-6

CCSDS_OMM_VERS = 2.0
CREATION_DATE  = 
ORIGINATOR     = 

OBJECT_NAME    = RASSVET-3 11
OBJECT_ID      = 2026-061L
CENTER_NAME    = EARTH
REF_FRAME      = TEME
TIME_SYSTEM    = UTC
MEAN_ELEMENT_THEORY = SGP/SGP4

EPOCH          = 2026-04-03T11:46:49.523808
MEAN_MOTION    = 15.89097124
ECCENTRICITY   = .00258063
INCLINATION    = 82.2965
RA_OF_ASC_NODE = 96.5032
ARG_OF_PERICENTER = 34.0528
MEAN_ANOMALY   = 326.2393

EPHEMERIS_TYPE = 0
CLASSIFICATION_TYPE = U
NORAD_CAT_ID   = 68370
ELEMENT_SET_NO = 999
REV_AT_EPOCH   = 171
BSTAR          = .24658983E-3
MEAN_MOTION_DOT = .72477E-3
MEAN_MOTION_DDOT = .682037E-6

CCSDS_OMM_VERS = 2.0
CREATION_DATE  = 
ORIGINATOR     = 

OBJECT_NAME    = RASSVET-3 12
OBJECT_ID      = 2026-061M
CENTER_NAME    = EARTH
REF_FRAME      = TEME
TIME_SYSTEM    = UTC
MEAN_ELEMENT_THEORY = SGP/SGP4

EPOCH          = 2026-04-03T10:15:48.193632
MEAN_MOTION    = 15.89148128
ECCENTRICITY   = .00257935
INCLINATION    = 82.2965
RA_OF_ASC_NODE = 96.5742
ARG_OF_PERICENTER = 34.3358
MEAN_ANOMALY   = 325.9573

EPHEMERIS_TYPE = 0
CLASSIFICATION_TYPE = U
NORAD_CAT_ID   = 68371
ELEMENT_SET_NO = 999
REV_AT_EPOCH   = 170
BSTAR          = .25362004E-3
MEAN_MOTION_DOT = .74722E-3
MEAN_MOTION_DDOT = .796959E-6

CCSDS_OMM_VERS = 2.0
CREATION_DATE  = 
ORIGINATOR     = 

OBJECT_NAME    = RASSVET-3 13
OBJECT_ID      = 2026-061N
CENTER_NAME    = EARTH
REF_FRAME      = TEME
TIME_SYSTEM    = UTC
MEAN_ELEMENT_THEORY = SGP/SGP4

EPOCH          = 2026-04-03T11:46:14.092896
MEAN_MOTION    = 15.89160039
ECCENTRICITY   = .00255737
INCLINATION    = 82.2965
RA_OF_ASC_NODE = 96.5026
ARG_OF_PERICENTER = 33.9621
MEAN_ANOMALY   = 326.3280

EPHEMERIS_TYPE = 0
CLASSIFICATION_TYPE = U
NORAD_CAT_ID   = 68372
ELEMENT_SET_NO = 999
REV_AT_EPOCH   = 171
BSTAR          = .24652462E-3
MEAN_MOTION_DOT = .72649E-3
MEAN_MOTION_DDOT = .691932E-6

CCSDS_OMM_VERS = 2.0
CREATION_DATE  = 
ORIGINATOR     = 

OBJECT_NAME    = RASSVET-3 14
OBJECT_ID      = 2026-061P
CENTER_NAME    = EARTH
REF_FRAME      = TEME
TIME_SYSTEM    = UTC
MEAN_ELEMENT_THEORY = SGP/SGP4

EPOCH          = 2026-04-03T11:45:39.474144
MEAN_MOTION    = 15.89236318
ECCENTRICITY   = .002552
INCLINATION    = 82.2966
RA_OF_ASC_NODE = 96.5020
ARG_OF_PERICENTER = 33.8001
MEAN_ANOMALY   = 326.4891

EPHEMERIS_TYPE = 0
CLASSIFICATION_TYPE = U
NORAD_CAT_ID   = 68373
ELEMENT_SET_NO = 999
REV_AT_EPOCH   = 171
BSTAR          = .25122939E-3
MEAN_MOTION_DOT = .74304E-3
MEAN_MOTION_DDOT = .777413E-6

CCSDS_OMM_VERS = 2.0
CREATION_DATE  = 
ORIGINATOR     = 

OBJECT_NAME    = RASSVET-3 15
OBJECT_ID      = 2026-061Q
CENTER_NAME    = EARTH
REF_FRAME      = TEME
TIME_SYSTEM    = UTC
MEAN_ELEMENT_THEORY = SGP/SGP4

EPOCH          = 2026-04-03T11:45:33.468480
MEAN_MOTION    = 15.89247600
ECCENTRICITY   = .00253079
INCLINATION    = 82.2967
RA_OF_ASC_NODE = 96.5021
ARG_OF_PERICENTER = 33.8516
MEAN_ANOMALY   = 326.4364

EPHEMERIS_TYPE = 0
CLASSIFICATION_TYPE = U
NORAD_CAT_ID   = 68374
ELEMENT_SET_NO = 999
REV_AT_EPOCH   = 171
BSTAR          = .24787413E-3
MEAN_MOTION_DOT = .73324E-3
MEAN_MOTION_DDOT = .727654E-6

CCSDS_OMM_VERS = 2.0
CREATION_DATE  = 
ORIGINATOR     = 

OBJECT_NAME    = RASSVET-3 16
OBJECT_ID      = 2026-061R
CENTER_NAME    = EARTH
REF_FRAME      = TEME
TIME_SYSTEM    = UTC
MEAN_ELEMENT_THEORY = SGP/SGP4

EPOCH          = 2026-04-03T19:16:17.700960
MEAN_MOTION    = 15.90056832
ECCENTRICITY   = .0024327
INCLINATION    = 82.2954
RA_OF_ASC_NODE = 96.1417
ARG_OF_PERICENTER = 34.1686
MEAN_ANOMALY   = 326.1146

EPHEMERIS_TYPE = 0
CLASSIFICATION_TYPE = U
NORAD_CAT_ID   = 68375
ELEMENT_SET_NO = 999
REV_AT_EPOCH   = 176
BSTAR          = .51303E-3
MEAN_MOTION_DOT = .157362E-2
MEAN_MOTION_DDOT = .7608E-5

CCSDS_OMM_VERS = 2.0
CREATION_DATE  = 
ORIGINATOR     = 

OBJECT_NAME    = SUPERVIEW NEO-2 OBJECT A
OBJECT_ID      = 2026-062A
CENTER_NAME    = EARTH
REF_FRAME      = TEME
TIME_SYSTEM    = UTC
MEAN_ELEMENT_THEORY = SGP/SGP4

EPOCH          = 2026-04-03T21:08:02.138784
MEAN_MOTION    = 15.20618961
ECCENTRICITY   = .0006488
INCLINATION    = 97.4367
RA_OF_ASC_NODE = 102.2427
ARG_OF_PERICENTER = 232.2102
MEAN_ANOMALY   = 127.8546

EPHEMERIS_TYPE = 0
CLASSIFICATION_TYPE = U
NORAD_CAT_ID   = 68377
ELEMENT_SET_NO = 999
REV_AT_EPOCH   = 136
BSTAR          = .2529E-3
MEAN_MOTION_DOT = .548E-4
MEAN_MOTION_DDOT = 0

CCSDS_OMM_VERS = 2.0
CREATION_DATE  = 
ORIGINATOR     = 

OBJECT_NAME    = SUPERVIEW NEO-2 OBJECT B
OBJECT_ID      = 2026-062B
CENTER_NAME    = EARTH
REF_FRAME      = TEME
TIME_SYSTEM    = UTC
MEAN_ELEMENT_THEORY = SGP/SGP4

EPOCH          = 2026-03-31T17:19:08.069952
MEAN_MOTION    = 15.20585060
ECCENTRICITY   = .00089524
INCLINATION    = 97.4347
RA_OF_ASC_NODE = 99.1253
ARG_OF_PERICENTER = 250.4427
MEAN_ANOMALY   = 109.5842

EPHEMERIS_TYPE = 0
CLASSIFICATION_TYPE = U
NORAD_CAT_ID   = 68378
ELEMENT_SET_NO = 999
REV_AT_EPOCH   = 88
BSTAR          = .19790811E-3
MEAN_MOTION_DOT = .427E-4
MEAN_MOTION_DDOT = 0

