RASSVET-3 7             
1 68366U 26061G   26093.49138008  .00074430  77943-6  25394-3 0  9997
2 68366  82.2965  96.5042 0026179  34.3438 325.9519 15.89027704  1715
RASSVET-3 8             
1 68367U 26061H   26093.49146154  .00072075  66018-6  24612-3 0  9995
2 68367  82.2965  96.5040 0026168  34.3053 325.9902 15.89007514  1718
RASSVET-3 9             
1 68368U 26061J   26093.42754440  .00140601  57861-5  46817-3 0  9999
2 68368  82.2958  96.5736 0025516  34.8114 325.4820 15.89583750  1706
RASSVET-3 10            
1 68369U 26061K   26093.49115557  .00072843  69952-6  24820-3 0  9994
2 68369  82.2965  96.5037 0026034  34.2644 326.0300 15.89058116  1711
RASSVET-3 11            
1 68370U 26061L   26093.49085097  .00072477  68204-6  24659-3 0  9993
2 68370  82.2965  96.5032 0025806  34.0528 326.2393 15.89097124  1719
RASSVET-3 12            
1 68371U 26061M   26093.42764113  .00074722  79696-6  25362-3 0  9994
2 68371  82.2965  96.5742 0025793  34.3358 325.9573 15.89148128  1703
RASSVET-3 13            
1 68372U 26061N   26093.49044089  .00072649  69193-6  24652-3 0  9993
2 68372  82.2965  96.5026 0025573  33.9621 326.3280 15.89160039  1719
RASSVET-3 14            
1 68373U 26061P   26093.49004021  .00074304  77741-6  25123-3 0  9998
2 68373  82.2966  96.5020 0025520  33.8001 326.4891 15.89236318  1711
RASSVET-3 15            
1 68374U 26061Q   26093.48997070  .00073324  72765-6  24787-3 0  9990
2 68374  82.2967  96.5021 0025307  33.8516 326.4364 15.89247600  1719
RASSVET-3 16            
1 68375U 26061R   26093.80298265  .00157362  76080-5  51303-3 0  9999
2 68375  82.2954  96.1417 0024327  34.1686 326.1146 15.90056832  1761
SUPERVIEW NEO-2 OBJECT A
1 68377U 26062A   26093.88058031  .00005480  00000+0  25290-3 0  9997
2 68377  97.4367 102.2427 0006488 232.2102 127.8546 15.20618961  1367
SUPERVIEW NEO-2 OBJECT B
1 68378U 26062B   26090.72162118  .00004270  00000+0  19791-3 0  9995
2 68378  97.4347  99.1253 0008952 250.4427 109.5842 15.20585060   882
